MALLIGYONG-1            
1 58400U 23179A   24182.60136110  .00007336  00000+0  33145-3 0  9991
2 58400  97.4027  69.2228 0003405 120.8702 239.2869 15.21242371 33765
